NORAD_CAT_ID,OBJECT_NAME,OBJECT_TYPE,EPOCH,MEAN_MOTION,ECCENTRICITY,INCLINATION,RA_OF_ASC_NODE,ARG_OF_PERICENTER,MEAN_ANOMALY,BSTAR,MEAN_MOTION_DOT,MEAN_MOTION_DDOT,TLE_LINE0,TLE_LINE1,TLE_LINE2,SEMIMAJOR_AXIS,PERIOD,APOGEE,PERIGEE,DECAYED
51795.0,STARLINK-3586,PAYLOAD,2022-04-05 00:00:00,15.49910297,0.0001394,53.2164,315.233,60.2652,233.392,-0.00032769,-0.00019021,0.0,0 STARLINK-3586,1 51795U 22017AD  22095.00001157 -.00019021  00000-0 -32769-3 0  9996,2 51795  53.2164 315.2330 0001394  60.2652 233.3920 15.49910297  7258,6795.125,92.909,417.937,416.043,0.0
51795.0,STARLINK-3586,PAYLOAD,2022-04-05 14:00:01,15.49897941,0.00015,53.2165,312.4427,73.0113,237.3109,-0.0010046,-0.00057081,0.0,0 STARLINK-3586,1 51795U 22017AD  22095.58335648 -.00057081  00000-0 -10046-2 0  9995,2 51795  53.2165 312.4427 0001500  73.0113 237.3109 15.49897941  3707,6795.161,92.909,418.046,416.007,0.0
51795.0,STARLINK-3586,PAYLOAD,2022-04-05 22:00:00,15.49841565,0.0001739,53.2163,310.8516,66.3035,304.8607,0.00022557,0.00012351,0.0,0 STARLINK-3586,1 51795U 22017AD  22095.91667824  .00012351  00000-0  22557-3 0  9996,2 51795  53.2163 310.8516 0001739  66.3035 304.8607 15.49841565  7391,6795.326,92.913,418.37300000000016,416.009,0.0
51795.0,STARLINK-3586,PAYLOAD,2022-04-06 14:00:01,15.49868041,0.0001623,53.2161,307.6638,75.2736,57.6445,0.00057605,0.00032358,0.0,0 STARLINK-3586,1 51795U 22017AD  22096.58334491  .00032358  00000-0  57605-3 0  9992,2 51795  53.2161 307.6638 0001623  75.2736  57.6445 15.49868041  3697,6795.249,92.911,418.217,416.011,0.0
51795.0,STARLINK-3586,PAYLOAD,2022-04-06 22:00:00,15.49876691,0.0001702,53.2158,306.0727,66.0706,127.759,0.00041309,0.00023056,0.0,0 STARLINK-3586,1 51795U 22017AD  22096.91667824  .00023056  00000-0  41309-3 0  9997,2 51795  53.2158 306.0727 0001702  66.0706 127.7590 15.49876691  7546,6795.223000000001,92.911,418.245,415.932,0.0
51795.0,STARLINK-3586,PAYLOAD,2022-04-07 14:00:01,15.49910253,0.0001534,53.2159,302.8846,76.0733,239.6029,0.00052988,0.00029763,0.0,0 STARLINK-3586,1 51795U 22017AD  22097.58334491  .00029763  00000-0  52988-3 0  9998,2 51795  53.2159 302.8846 0001534  76.0733 239.6029 15.49910253  3692,6795.125,92.909,418.033,415.948,0.0
51795.0,STARLINK-3586,PAYLOAD,2022-04-07 22:00:00,15.49943893,0.0001533,53.2159,301.2935,64.9996,311.635,-0.0010619,-0.00060383,0.0,0 STARLINK-3586,1 51795U 22017AD  22097.91667824 -.00060383  00000-0 -10619-2 0  9993,2 51795  53.2159 301.2935 0001533  64.9996 311.6350 15.49943893  3683,6795.026999999999,92.907,417.934,415.85,0.0
51795.0,STARLINK-3586,PAYLOAD,2022-04-08 06:00:00,15.49898544,0.0001309,53.216,299.6991,65.2425,12.3582,-0.00013264,-7.975e-05,0.0,0 STARLINK-3586,1 51795U 22017AD  22098.25001157 -.00007975  00000-0 -13264-3 0  9990,2 51795  53.2160 299.6991 0001309  65.2425  12.3582 15.49898544  7755,6795.16,92.909,417.914,416.135,0.0
51795.0,STARLINK-3586,PAYLOAD,2022-04-08 14:00:03,15.49912559,0.000131,53.2164,298.1052,70.6665,67.9838,0.00019638,0.0001072,0.0,0 STARLINK-3586,1 51795U 22017AD  22098.58336806  .00010720  00000-0  19638-3 0  9999,2 51795  53.2164 298.1052 0001310  70.6665  67.9838 15.49912559  3691,6795.119000000002,92.908,417.874,416.093,0.0
51795.0,STARLINK-3586,PAYLOAD,2022-04-08 22:00:00,15.49887093,0.0001315999999999,53.2165,296.5141,55.2765,144.1983,-0.0004745,-0.0002729,0.0,0 STARLINK-3586,1 51795U 22017AD  22098.91667824 -.00027290  00000-0 -47450-3 0  9998,2 51795  53.2165 296.5141 0001316  55.2765 144.1983 15.49887093  3669,6795.193,92.91,417.952,416.164,0.0
51795.0,STARLINK-3586,PAYLOAD,2022-04-09 14:00:01,15.49889336,0.0001127,53.2163,293.3264,62.1432,259.1275,0.00015423,8.313e-05,0.0,0 STARLINK-3586,1 51795U 22017AD  22099.58334491  .00008313  00000-0  15423-3 0  9991,2 51795  53.2163 293.3264 0001127  62.1432 259.1275 15.49889336  3692,6795.187,92.91,417.817,416.286,0.0
51795.0,STARLINK-3586,PAYLOAD,2022-04-09 16:00:00,15.49905768,0.0001181,53.2162,292.9287,58.527,7.9724,-0.00030574,-0.00017777,0.0,0 STARLINK-3586,1 51795U 22017AD  22099.66667824 -.00017777  00000-0 -30574-3 0  9999,2 51795  53.2162 292.9287 0001181  58.5270   7.9724 15.49905768  7971,6795.138000000001,92.909,417.806,416.201,0.0
51795.0,STARLINK-3586,PAYLOAD,2022-04-09 22:00:00,15.49886919,0.0001348,53.216,291.7353,52.3271,329.8733,0.00043905,0.00024547,0.0,0 STARLINK-3586,1 51795U 22017AD  22099.91667824  .00024547  00000-0  43905-3 0  9990,2 51795  53.2160 291.7353 0001348  52.3271 329.8733 15.49886919  3695,6795.194,92.91,417.975,416.143,0.0
51795.0,STARLINK-3586,PAYLOAD,2022-04-10 14:00:01,15.49877713,0.000138,53.2159,288.5477,64.5695,79.4688,0.00019976,0.00010899,0.0,0 STARLINK-3586,1 51795U 22017AD  22100.58334491  .00010899  00000-0  19976-3 0  9993,2 51795  53.2159 288.5477 0001380  64.5695  79.4688 15.49877713  3694,6795.22,92.911,418.023,416.148,0.0
51795.0,STARLINK-3586,PAYLOAD,2022-04-10 20:00:01,15.49926722,0.0001598,53.2164,287.3581,56.4993,43.2115,-0.0016241,-0.00091694,0.0,0 STARLINK-3586,1 51795U 22017AD  22100.83334491 -.00091694  00000-0 -16241-2 0  9996,2 51795  53.2164 287.3581 0001598  56.4993  43.2115 15.49926722  8150,6795.0769999999975,92.908,418.028,415.856,0.0
51795.0,STARLINK-3586,PAYLOAD,2022-04-10 22:00:00,15.50087758,0.0001573,53.2165,286.9612,59.062,145.8472,-0.0097719,-0.00523315,0.0,0 STARLINK-3586,1 51795U 22017AD  22100.91667824 -.00523315  00000-0 -97719-2 0  9993,2 51795  53.2165 286.9612 0001573  59.0620 145.8472 15.50087758  3698,6794.607,92.898,417.54,415.403,0.0
51795.0,STARLINK-3586,PAYLOAD,2022-04-11 04:00:01,15.49632974,0.0001393,53.2167,285.7679,51.0499,109.7093,-0.002027,-0.00112846,0.0,0 STARLINK-3586,1 51795U 22017AD  22101.16668981 -.00112846  00000-0 -20270-2 0  9997,2 51795  53.2167 285.7679 0001393  51.0499 109.7093 15.49632974  8200,6795.936,92.925,418.74800000000016,416.854,0.0
51795.0,STARLINK-3586,PAYLOAD,2022-04-11 12:00:00,15.49695136,0.0001457,53.2174,284.1785,57.7795,163.4653,-0.013829,-0.00721901,0.0,0 STARLINK-3586,1 51795U 22017AD  22101.50001157 -.00721901  00000-0 -13829-1 0  9990,2 51795  53.2174 284.1785 0001457  57.7795 163.4653 15.49695136  8255,6795.754,92.922,418.609,416.629,0.0
51795.0,STARLINK-3586,PAYLOAD,2022-04-11 14:00:01,15.49567471,0.0001321,53.2177,283.7814,55.1691,271.2262,-0.01391,-0.00722755,0.0,0 STARLINK-3586,1 51795U 22017AD  22101.58334491 -.00722755  00000-0 -13910-1 0  9997,2 51795  53.2177 283.7814 0001321  55.1691 271.2262 15.49567471  3689,6796.127,92.929,418.89,417.095,0.0
51795.0,STARLINK-3586,PAYLOAD,2022-04-11 22:00:00,15.49055218,0.0001181,53.2175,282.1936,63.5201,323.093,-0.014101,-0.0071971999999999,0.0,0 STARLINK-3586,1 51795U 22017AD  22101.91667824 -.00719720  00000-0 -14101-1 0  9994,2 51795  53.2175 282.1936 0001181  63.5201 323.0930 15.49055218  3677,6797.626,92.96,420.293,418.68800000000016,0.0
51795.0,STARLINK-3586,PAYLOAD,2022-04-12 12:00:00,15.48162913,0.0001291999999999,53.2175,279.4123,53.3903,347.1308,-0.014535,-0.0071898,0.0,0 STARLINK-3586,1 51795U 22017AD  22102.50001157 -.00718980  00000-0 -14535-1 0  9999,2 51795  53.2175 279.4123 0001292  53.3903 347.1308 15.48162913  8416,6800.236999999999,93.013,422.981,421.224,0.0
51795.0,STARLINK-3586,PAYLOAD,2022-04-12 14:00:01,15.48035886,0.0001472,53.2176,279.0161,52.5684,92.643,-0.014627,-0.00720241,0.0,0 STARLINK-3586,1 51795U 22017AD  22102.58334491 -.00720241  00000-0 -14627-1 0  9992,2 51795  53.2176 279.0161 0001472  52.5684  92.6430 15.48035886  3682,6800.609,93.021,423.475,421.473,0.0
51795.0,STARLINK-3586,PAYLOAD,2022-04-12 22:00:00,15.47521983,0.0001488,53.2176,277.4317,56.2125,147.3789,-0.014739,-0.00713348,0.0,0 STARLINK-3586,1 51795U 22017AD  22102.91667824 -.00713348  00000-0 -14739-1 0  9992,2 51795  53.2176 277.4317 0001488  56.2125 147.3789 15.47521983  3676,6802.115,93.052,424.992,422.968,0.0
51795.0,STARLINK-3586,PAYLOAD,2022-04-13 14:00:03,15.46507271,0.0001471,53.2179,274.2617,47.085,271.5551,-0.015471,-0.00722072,0.0,0 STARLINK-3586,1 51795U 22017AD  22103.58336806 -.00722072  00000-0 -15471-1 0  9997,2 51795  53.2179 274.2617 0001471  47.0850 271.5551 15.46507271  8587,6805.09,93.113,427.956,425.954,0.0
51795.0,STARLINK-3586,PAYLOAD,2022-04-13 22:00:00,15.45994538,0.0001206,53.2175,272.681,58.6894,316.363,-0.015637,-0.00717302,0.0,0 STARLINK-3586,1 51795U 22017AD  22103.91667824 -.00717302  00000-0 -15637-1 0  9995,2 51795  53.2175 272.6810 0001206  58.6894 316.3630 15.45994538  3689,6806.594,93.144,429.28,427.639,0.0
51795.0,STARLINK-3586,PAYLOAD,2022-04-14 14:00:01,15.44976569,0.0001631999999999,53.2176,269.5185,41.5019,84.7949,-0.0162819999999999,-0.00720922,0.0,0 STARLINK-3586,1 51795U 22017AD  22104.58334491 -.00720922  00000-0 -16282-1 0  9999,2 51795  53.2176 269.5185 0001632  41.5019  84.7949 15.44976569  8736,6809.584,93.205,432.56,430.338,0.0
51795.0,STARLINK-3586,PAYLOAD,2022-04-14 22:00:00,15.44461793,0.0001415,53.2173,267.9411,59.2287,121.7717,-0.01636,-0.00712345,0.0,0 STARLINK-3586,1 51795U 22017AD  22104.91667824 -.00712345  00000-0 -16360-1 0  9992,2 51795  53.2173 267.9411 0001415  59.2287 121.7717 15.44461793  3670,6811.097,93.236,433.926,431.99800000000016,0.0
51795.0,STARLINK-3586,PAYLOAD,2022-04-15 03:26:01,15.45145802,0.0002193,53.2163,266.8511,44.4079,315.7104,-0.0070303,-0.00325057,0.0,0 STARLINK-3586,1 51795U 22017AD  22105.14306830 -.00325057  00000-0 -70303-2 0  9993,2 51795  53.2163 266.8511 0002193  44.4079 315.7104 15.45145802  8825,6809.087,93.195,432.445,429.458,0.0
51795.0,STARLINK-3586,PAYLOAD,2022-04-15 12:45:16,15.44662091,9.71e-05,53.2163,265.0125,26.0266,334.0791,-0.0067089,-0.00305822,0.0,0 STARLINK-3586,1 51795U 22017AD  22105.53143685 -.00305822  00000-0 -67089-2 0  9998,2 51795  53.2163 265.0125 0000971  26.0266 334.0791 15.44662091  8888,6810.5080000000025,93.224,433.034,431.712,0.0
